NORAD_CAT_ID,OBJECT_NAME,OBJECT_TYPE,EPOCH,MEAN_MOTION,ECCENTRICITY,INCLINATION,RA_OF_ASC_NODE,ARG_OF_PERICENTER,MEAN_ANOMALY,BSTAR,MEAN_MOTION_DOT,MEAN_MOTION_DDOT,TLE_LINE0,TLE_LINE1,TLE_LINE2,SEMIMAJOR_AXIS,PERIOD,APOGEE,PERIGEE,DECAYED
56483.0,STARLINK-5868,PAYLOAD,2024-01-22 03:45:23,14.98329969,0.0002722,69.9998,284.8402,262.9073,97.1776,7.3245e-05,7.81e-06,0.0,0 STARLINK-5868,1 56483U 23064AM  24022.15652644  .00000781  00000-0  73245-4 0  9995,2 56483  69.9998 284.8402 0002722 262.9073  97.1776 14.98329969 39636,6950.193,96.107,573.95,570.166,0.0
56483.0,STARLINK-5868,PAYLOAD,2024-01-22 21:22:52,14.98328874,0.0002582,70.0002,282.989,255.1169,104.9705,1.2154e-05,5.2e-07,0.0,0 STARLINK-5868,1 56483U 23064AM  24022.89088912  .00000052  00000-0  12154-4 0  9990,2 56483  70.0002 282.9890 0002582 255.1169 104.9705 14.98328874 39384,6950.196,96.107,573.856,570.267,0.0
56483.0,STARLINK-5868,PAYLOAD,2024-01-23 03:47:24,14.98330747,0.0002535,70.0002,282.3159,255.5113,104.5765,3.3093e-05,3.02e-06,0.0,0 STARLINK-5868,1 56483U 23064AM  24023.15792734  .00000302  00000-0  33093-4 0  9997,2 56483  70.0002 282.3159 0002535 255.5113 104.5765 14.98330747 39785,6950.191,96.107,573.817,570.294,0.0
56483.0,STARLINK-5868,PAYLOAD,2024-01-23 23:01:01,14.98330948,0.0002473,70.0004,280.2957,252.1256,107.9634,1.5955e-05,9.7e-07,0.0,0 STARLINK-5868,1 56483U 23064AM  24023.95904663  .00000097  00000-0  15955-4 0  9999,2 56483  70.0004 280.2957 0002473 252.1256 107.9634 14.98330948 39541,6950.19,96.107,573.774,570.336,0.0
56483.0,STARLINK-5868,PAYLOAD,2024-01-24 02:13:17,14.98330694,0.0002477,70.0004,279.9593,253.9667,106.122,1.0204e-05,2.9e-07,0.0,0 STARLINK-5868,1 56483U 23064AM  24024.09256698  .00000029  00000-0  10204-4 0  9990,2 56483  70.0004 279.9593 0002477 253.9667 106.1220 14.98330694 39563,6950.191,96.107,573.777,570.334,0.0
56483.0,STARLINK-5868,PAYLOAD,2024-01-24 19:50:45,14.98337496,0.0002605,70.0002,278.1075,252.3752,107.7123,5.5854e-05,5.74e-06,0.0,0 STARLINK-5868,1 56483U 23064AM  24024.82691911  .00000574  00000-0  55854-4 0  9997,2 56483  70.0002 278.1075 0002605 252.3752 107.7123 14.98337496 40038,6950.17,96.107,573.845,570.224,0.0
56483.0,STARLINK-5868,PAYLOAD,2024-01-24 21:26:53,14.98337489,0.0002606,70.0002,277.9392,252.4194,107.668,5.4757e-05,5.61e-06,0.0,0 STARLINK-5868,1 56483U 23064AM  24024.89367876  .00000561  00000-0  54757-4 0  9991,2 56483  70.0002 277.9392 0002606 252.4194 107.6680 14.98337489 39687,6950.17,96.107,573.846,570.224,0.0
56483.0,STARLINK-5868,PAYLOAD,2024-01-25 02:15:18,14.98336374,0.0002632,70.0001,277.4341,254.2451,105.8417,3.6965e-05,3.48e-06,0.0,0 STARLINK-5868,1 56483U 23064AM  24025.09395917  .00000348  00000-0  36965-4 0  9995,2 56483  70.0001 277.4341 0002632 254.2451 105.8417 14.98336374 39714,6950.173,96.107,573.867,570.209,0.0
56483.0,STARLINK-5868,PAYLOAD,2024-01-25 19:52:47,14.98321922,0.0002555,70.0006,275.5832,242.0614,118.0287,-9.0134e-05,-1.168e-05,0.0,0 STARLINK-5868,1 56483U 23064AM  24025.82833202 -.00001168  00000-0 -90134-4 0  9991,2 56483  70.0006 275.5832 0002555 242.0614 118.0287 14.98321922 40180,6950.218,96.108,573.859,570.307,0.0
56483.0,STARLINK-5868,PAYLOAD,2024-01-25 21:28:55,14.98322341,0.0002555,70.0008,275.4147,236.3733,123.7183,-5.8363e-05,-7.89e-06,0.0,0 STARLINK-5868,1 56483U 23064AM  24025.89509165 -.00000789  00000-0 -58363-4 0  9992,2 56483  70.0008 275.4147 0002555 236.3733 123.7183 14.98322341 39832,6950.217,96.107,573.857,570.306,0.0
56483.0,STARLINK-5868,PAYLOAD,2024-01-26 02:17:20,14.9831982,0.0002568,70.0002,274.909,249.599,110.4894,-0.00011156,-1.423e-05,0.0,0 STARLINK-5868,1 56483U 23064AM  24026.09537543 -.00001423  00000-0 -11156-3 0  9990,2 56483  70.0002 274.9090 0002568 249.5990 110.4894 14.98319820 39865,6950.224,96.108,573.874,570.305,0.0
56483.0,STARLINK-5868,PAYLOAD,2024-01-26 19:54:48,14.98330362,0.0003076,69.9989,273.0544,276.1774,83.9035,-5.2043e-05,-7.14e-06,0.0,0 STARLINK-5868,1 56483U 23064AM  24026.82972843 -.00000714  00000-0 -52043-4 0  9990,2 56483  69.9989 273.0544 0003076 276.1774  83.9035 14.98330362 40330,6950.192,96.107,574.195,569.919,0.0
56483.0,STARLINK-5868,PAYLOAD,2024-01-27 02:19:20,14.98334145,0.0002799,69.999,272.3818,272.0094,88.0745,-6.3893e-06,-1.69e-06,0.0,0 STARLINK-5868,1 56483U 23064AM  24027.09676433 -.00000169  00000-0 -63893-5 0  9996,2 56483  69.9990 272.3818 0002799 272.0094  88.0745 14.98334145 40011,6950.18,96.107,573.99,570.1,0.0
56483.0,STARLINK-5868,PAYLOAD,2024-01-27 19:56:49,14.98327066,0.0002828,69.9987,270.5292,270.5099,89.5736,0.00012094,1.35e-05,0.0,0 STARLINK-5868,1 56483U 23064AM  24027.83112592  .00001350  00000-0  12094-3 0  9995,2 56483  69.9987 270.5292 0002828 270.5099  89.5736 14.98327066 40485,6950.202,96.107,574.032,570.101,0.0
56483.0,STARLINK-5868,PAYLOAD,2024-01-27 21:32:57,14.98328817,0.0002848,69.9989,270.3622,255.2753,104.8091,9.3088e-05,1.018e-05,0.0,0 STARLINK-5868,1 56483U 23064AM  24027.89788462  .00001018  00000-0  93088-4 0  9990,2 56483  69.9989 270.3622 0002848 255.2753 104.8091 14.98328817 40133,6950.197,96.107,574.041,570.082,0.0
56483.0,STARLINK-5868,PAYLOAD,2024-01-28 02:21:21,14.98328205,0.0002733,69.9992,269.8572,267.8334,92.2512,0.00010429,1.152e-05,0.0,0 STARLINK-5868,1 56483U 23064AM  24028.09816595  .00001152  00000-0  10429-3 0  9998,2 56483  69.9992 269.8572 0002733 267.8334  92.2512 14.98328205 40163,6950.198,96.107,573.963,570.164,0.0
56483.0,STARLINK-5868,PAYLOAD,2024-01-28 19:58:50,14.9835226,0.0002556,69.9992,268.0062,258.9554,101.1317,-0.00034568,-4.217e-05,0.0,0 STARLINK-5868,1 56483U 23064AM  24028.83252355 -.00004217  00000-0 -34568-3 0  9995,2 56483  69.9992 268.0062 0002556 258.9554 101.1317 14.98352260 40639,6950.124,96.106,573.766,570.213,0.0
56483.0,STARLINK-5868,PAYLOAD,2024-01-28 21:34:58,14.9835237,0.0002557,69.9991,267.8378,257.9212,102.1661,-0.00035369,-4.313e-05,0.0,0 STARLINK-5868,1 56483U 23064AM  24028.89928281 -.00004313  00000-0 -35369-3 0  9996,2 56483  69.9991 267.8378 0002557 257.9212 102.1661 14.98352370 40282,6950.124,96.106,573.766,570.212,0.0
56483.0,STARLINK-5868,PAYLOAD,2024-01-29 00:47:16,14.98243424,0.0002269,69.9991,267.5007,272.4812,87.6087,0.0014866,0.00017649,0.0,0 STARLINK-5868,1 56483U 23064AM  24029.03282622  .00017649  00000-0  14866-2 0  9997,2 56483  69.9991 267.5007 0002269 272.4812  87.6087 14.98243424 40666,6950.461,96.113,573.903,570.749,0.0
56483.0,STARLINK-5868,PAYLOAD,2024-01-30 00:49:15,14.98329538,0.0002555,69.9992,264.9764,257.1237,102.9636,-1.1511e-05,-2.3e-06,0.0,0 STARLINK-5868,1 56483U 23064AM  24030.03420648 -.00000230  00000-0 -11511-4 0  9997,2 56483  69.9992 264.9764 0002555 257.1237 102.9636 14.98329538 40816,6950.194,96.107,573.835,570.284,0.0
56483.0,STARLINK-5868,PAYLOAD,2024-01-30 07:13:47,14.98332576,0.000268,69.999,264.3011,279.892,80.1937,2.1027e-06,-6.8e-07,0.0,0 STARLINK-5868,1 56483U 23064AM  24030.30124524 -.00000068  00000-0  21027-5 0  9993,2 56483  69.9990 264.3011 0002680 279.8920  80.1937 14.98332576 40493,6950.185,96.107,573.913,570.187,0.0
56483.0,STARLINK-5868,PAYLOAD,2024-01-30 21:39:00,14.98331374,0.0002876,69.9979,262.7852,269.4923,90.5906,2.6014e-06,-6.2e-07,0.0,0 STARLINK-5868,1 56483U 23064AM  24030.90208381 -.00000062  00000-0  26014-5 0  9998,2 56483  69.9979 262.7852 0002876 269.4923  90.5906 14.98331374 40586,6950.189,96.107,574.053,570.055,0.0
56483.0,STARLINK-5868,PAYLOAD,2024-01-31 00:51:15,14.98333548,0.0002845,69.998,262.4486,270.3651,89.7182,2.925e-05,2.56e-06,0.0,0 STARLINK-5868,1 56483U 23064AM  24031.03560148  .00000256  00000-0  29250-4 0  9993,2 56483  69.9980 262.4486 0002845 270.3651  89.7182 14.98333548 40966,6950.182,96.107,574.024,570.07,0.0
56483.0,STARLINK-5868,PAYLOAD,2024-02-01 00:53:17,14.9832949,0.0002844,69.9981,259.9239,270.8665,89.2168,-2.9716e-05,-4.48e-06,0.0,0 STARLINK-5868,1 56483U 23064AM  24032.03700531 -.00000448  00000-0 -29716-4 0  9998,2 56483  69.9981 259.9239 0002844 270.8665  89.2168 14.98329490 41111,6950.194,96.107,574.036,570.083,0.0
56483.0,STARLINK-5868,PAYLOAD,2024-02-02 00:55:18,14.98326351,0.0002893,69.9979,257.3995,268.741,91.3418,-7.1736e-05,-9.49e-06,0.0,0 STARLINK-5868,1 56483U 23064AM  24033.03840945 -.00000949  00000-0 -71736-4 0  9998,2 56483  69.9979 257.3995 0002893 268.7410  91.3418 14.98326351 41268,6950.204,96.107,574.08,570.058,0.0
56483.0,STARLINK-5868,PAYLOAD,2024-02-02 18:32:48,14.98324207,0.0003166,69.9981,255.5464,261.5721,98.508,-0.00018499,-2.299e-05,0.0,0 STARLINK-5868,1 56483U 23064AM  24033.77277807 -.00002299  00000-0 -18499-3 0  9996,2 56483  69.9981 255.5464 0003166 261.5721  98.5080 14.98324207 41376,6950.211,96.107,574.276,569.875,0.0
56483.0,STARLINK-5868,PAYLOAD,2024-02-02 21:45:04,14.98319528,0.0002774,69.9982,255.2101,269.6197,90.4644,-6.6179e-05,-8.82e-06,0.0,0 STARLINK-5868,1 56483U 23064AM  24033.90629878 -.00000882  00000-0 -66179-4 0  9995,2 56483  69.9982 255.2101 0002774 269.6197  90.4644 14.98319528 41032,6950.225,96.108,574.018,570.162,0.0
56483.0,STARLINK-5868,PAYLOAD,2024-02-03 12:10:16,14.98327956,0.0002574,69.999,253.6964,276.3871,83.6995,4.7803e-05,4.77e-06,0.0,0 STARLINK-5868,1 56483U 23064AM  24034.50713444  .00000477  00000-0  47803-4 0  9996,2 56483  69.9990 253.6964 0002574 276.3871  83.6995 14.98327956 41488,6950.199,96.107,573.853,570.275,0.0
56483.0,STARLINK-5868,PAYLOAD,2024-02-03 13:46:24,14.98319216,0.0002792,69.9982,253.5283,271.1341,88.9498,0.00015883,1.802e-05,0.0,0 STARLINK-5868,1 56483U 23064AM  24034.57389366  .00001802  00000-0  15883-3 0  9990,2 56483  69.9982 253.5283 0002792 271.1341  88.9498 14.98319216 41137,6950.226,96.108,574.032,570.151,0.0
56483.0,STARLINK-5868,PAYLOAD,2024-02-03 21:47:04,14.98321496,0.0002836,69.998,252.6868,268.1435,91.9399,0.00017155,1.954e-05,0.0,0 STARLINK-5868,1 56483U 23064AM  24034.90769350  .00001954  00000-0  17155-3 0  9994,2 56483  69.9980 252.6868 0002836 268.1435  91.9399 14.98321496 41185,6950.219,96.108,574.055,570.113,0.0
